STARLINK-35437          
1 66563U 25268G   25337.91670139 -.01863849  00000+0 -14995-1 0  9994
2 66563  42.9990 173.3096 0001478 270.9251 349.3517 15.73327786  3257
STARLINK-35358          
1 66564U 25268H   25337.91670139 -.01869637  00000+0 -15043-1 0  9991
2 66564  42.9991 173.3051 0001424 265.4458 356.7390 15.73336935  3201
STARLINK-35893          
1 66565U 25268J   25337.91670139 -.01852804  00000+0 -14900-1 0  9991
2 66565  42.9991 173.2999 0001597 270.6981 353.4224 15.73315615  3259
STARLINK-35871          
1 66566U 25268K   25337.91670139 -.01855040  00000+0 -14919-1 0  9997
2 66566  42.9990 173.2951 0001595 269.9409 356.0951 15.73317848  3257
STARLINK-35825          
1 66567U 25268L   25337.91670139 -.01853468  00000+0 -14905-1 0  9995
2 66567  42.9990 173.2904 0001447 266.2271   1.7250 15.73318494  3253
STARLINK-35803          
1 66568U 25268M   25337.91670139 -.01859968  00000+0 -14965-1 0  9993
2 66568  42.9990 173.2851 0001260 269.9027 359.9683 15.73321105  3258
STARLINK-35835          
1 66569U 25268N   25337.91670139 -.01856923  00000+0 -14938-1 0  9992
2 66569  42.9990 173.2805 0001468 263.6593   8.1318 15.73317564  3259
STARLINK-35834          
1 66570U 25268P   25337.91670139 -.01839438  00000+0 -14783-1 0  9994
2 66570  42.9991 173.2757 0001655 270.7408   2.9710 15.73304529  3255
STARLINK-35836          
1 66571U 25268Q   25337.91670139 -.01844078  00000+0 -14823-1 0  9996
2 66571  42.9991 173.2711 0001476 273.9342   1.6894 15.73310468  3257
STARLINK-35870          
1 66572U 25268R   25337.91670139 -.01846163  00000+0 -14838-1 0  9990
2 66572  42.9991 173.2674 0001670 266.3348  11.2013 15.73314622  3250
STARLINK-35650          
1 66573U 25268S   25337.91670139 -.01836220  00000+0 -14749-1 0  9995
2 66573  42.9990 173.2615 0001873 269.0657  10.3869 15.73308348  3250
STARLINK-35812          
1 66574U 25268T   25337.91670139 -.01849753  00000+0 -14873-1 0  9999
2 66574  42.9991 173.2561 0001512 267.9771  13.3965 15.73314890  3255
