CCSDS_OMM_VERS = 2.0
CREATION_DATE  = 
ORIGINATOR     = 

OBJECT_NAME    = STARLINK-35437
OBJECT_ID      = 2025-268G
CENTER_NAME    = EARTH
REF_FRAME      = TEME
TIME_SYSTEM    = UTC
MEAN_ELEMENT_THEORY = SGP/SGP4

EPOCH          = 2025-12-03T22:00:03.000096
MEAN_MOTION    = 15.73327786
ECCENTRICITY   = .00014787
INCLINATION    = 42.9990
RA_OF_ASC_NODE = 173.3096
ARG_OF_PERICENTER = 270.9251
MEAN_ANOMALY   = 349.3517

EPHEMERIS_TYPE = 0
CLASSIFICATION_TYPE = U
NORAD_CAT_ID   = 66563
ELEMENT_SET_NO = 999
REV_AT_EPOCH   = 325
BSTAR          = -.14995211E-1
MEAN_MOTION_DOT = -.1863849E-1
MEAN_MOTION_DDOT = 0

CCSDS_OMM_VERS = 2.0
CREATION_DATE  = 
ORIGINATOR     = 

OBJECT_NAME    = STARLINK-35358
OBJECT_ID      = 2025-268H
CENTER_NAME    = EARTH
REF_FRAME      = TEME
TIME_SYSTEM    = UTC
MEAN_ELEMENT_THEORY = SGP/SGP4

EPOCH          = 2025-12-03T22:00:03.000096
MEAN_MOTION    = 15.73336935
ECCENTRICITY   = .00014243
INCLINATION    = 42.9991
RA_OF_ASC_NODE = 173.3051
ARG_OF_PERICENTER = 265.4458
MEAN_ANOMALY   = 356.7390

EPHEMERIS_TYPE = 0
CLASSIFICATION_TYPE = U
NORAD_CAT_ID   = 66564
ELEMENT_SET_NO = 999
REV_AT_EPOCH   = 320
BSTAR          = -.1504336E-1
MEAN_MOTION_DOT = -.1869637E-1
MEAN_MOTION_DDOT = 0

CCSDS_OMM_VERS = 2.0
CREATION_DATE  = 
ORIGINATOR     = 

OBJECT_NAME    = STARLINK-35893
OBJECT_ID      = 2025-268J
CENTER_NAME    = EARTH
REF_FRAME      = TEME
TIME_SYSTEM    = UTC
MEAN_ELEMENT_THEORY = SGP/SGP4

EPOCH          = 2025-12-03T22:00:03.000096
MEAN_MOTION    = 15.73315615
ECCENTRICITY   = .0001597
INCLINATION    = 42.9991
RA_OF_ASC_NODE = 173.2999
ARG_OF_PERICENTER = 270.6981
MEAN_ANOMALY   = 353.4224

EPHEMERIS_TYPE = 0
CLASSIFICATION_TYPE = U
NORAD_CAT_ID   = 66565
ELEMENT_SET_NO = 999
REV_AT_EPOCH   = 325
BSTAR          = -.14899846E-1
MEAN_MOTION_DOT = -.1852804E-1
MEAN_MOTION_DDOT = 0

CCSDS_OMM_VERS = 2.0
CREATION_DATE  = 
ORIGINATOR     = 

OBJECT_NAME    = STARLINK-35871
OBJECT_ID      = 2025-268K
CENTER_NAME    = EARTH
REF_FRAME      = TEME
TIME_SYSTEM    = UTC
MEAN_ELEMENT_THEORY = SGP/SGP4

EPOCH          = 2025-12-03T22:00:03.000096
MEAN_MOTION    = 15.73317848
ECCENTRICITY   = .00015955
INCLINATION    = 42.9990
RA_OF_ASC_NODE = 173.2951
ARG_OF_PERICENTER = 269.9409
MEAN_ANOMALY   = 356.0951

EPHEMERIS_TYPE = 0
CLASSIFICATION_TYPE = U
NORAD_CAT_ID   = 66566
ELEMENT_SET_NO = 999
REV_AT_EPOCH   = 325
BSTAR          = -.14919112E-1
MEAN_MOTION_DOT = -.185504E-1
MEAN_MOTION_DDOT = 0

CCSDS_OMM_VERS = 2.0
CREATION_DATE  = 
ORIGINATOR     = 

OBJECT_NAME    = STARLINK-35825
OBJECT_ID      = 2025-268L
CENTER_NAME    = EARTH
REF_FRAME      = TEME
TIME_SYSTEM    = UTC
MEAN_ELEMENT_THEORY = SGP/SGP4

EPOCH          = 2025-12-03T22:00:03.000096
MEAN_MOTION    = 15.73318494
ECCENTRICITY   = .00014475
INCLINATION    = 42.9990
RA_OF_ASC_NODE = 173.2904
ARG_OF_PERICENTER = 266.2271
MEAN_ANOMALY   = 1.7250

EPHEMERIS_TYPE = 0
CLASSIFICATION_TYPE = U
NORAD_CAT_ID   = 66567
ELEMENT_SET_NO = 999
REV_AT_EPOCH   = 325
BSTAR          = -.14905307E-1
MEAN_MOTION_DOT = -.1853468E-1
MEAN_MOTION_DDOT = 0

CCSDS_OMM_VERS = 2.0
CREATION_DATE  = 
ORIGINATOR     = 

OBJECT_NAME    = STARLINK-35803
OBJECT_ID      = 2025-268M
CENTER_NAME    = EARTH
REF_FRAME      = TEME
TIME_SYSTEM    = UTC
MEAN_ELEMENT_THEORY = SGP/SGP4

EPOCH          = 2025-12-03T22:00:03.000096
MEAN_MOTION    = 15.73321105
ECCENTRICITY   = .00012605
INCLINATION    = 42.9990
RA_OF_ASC_NODE = 173.2851
ARG_OF_PERICENTER = 269.9027
MEAN_ANOMALY   = 359.9683

EPHEMERIS_TYPE = 0
CLASSIFICATION_TYPE = U
NORAD_CAT_ID   = 66568
ELEMENT_SET_NO = 999
REV_AT_EPOCH   = 325
BSTAR          = -.14965302E-1
MEAN_MOTION_DOT = -.1859968E-1
MEAN_MOTION_DDOT = 0

CCSDS_OMM_VERS = 2.0
CREATION_DATE  = 
ORIGINATOR     = 

OBJECT_NAME    = STARLINK-35835
OBJECT_ID      = 2025-268N
CENTER_NAME    = EARTH
REF_FRAME      = TEME
TIME_SYSTEM    = UTC
MEAN_ELEMENT_THEORY = SGP/SGP4

EPOCH          = 2025-12-03T22:00:03.000096
MEAN_MOTION    = 15.73317564
ECCENTRICITY   = .00014687
INCLINATION    = 42.9990
RA_OF_ASC_NODE = 173.2805
ARG_OF_PERICENTER = 263.6593
MEAN_ANOMALY   = 8.1318

EPHEMERIS_TYPE = 0
CLASSIFICATION_TYPE = U
NORAD_CAT_ID   = 66569
ELEMENT_SET_NO = 999
REV_AT_EPOCH   = 325
BSTAR          = -.14937744E-1
MEAN_MOTION_DOT = -.1856923E-1
MEAN_MOTION_DDOT = 0

CCSDS_OMM_VERS = 2.0
CREATION_DATE  = 
ORIGINATOR     = 

OBJECT_NAME    = STARLINK-35834
OBJECT_ID      = 2025-268P
CENTER_NAME    = EARTH
REF_FRAME      = TEME
TIME_SYSTEM    = UTC
MEAN_ELEMENT_THEORY = SGP/SGP4

EPOCH          = 2025-12-03T22:00:03.000096
MEAN_MOTION    = 15.73304529
ECCENTRICITY   = .00016556
INCLINATION    = 42.9991
RA_OF_ASC_NODE = 173.2757
ARG_OF_PERICENTER = 270.7408
MEAN_ANOMALY   = 2.9710

EPHEMERIS_TYPE = 0
CLASSIFICATION_TYPE = U
NORAD_CAT_ID   = 66570
ELEMENT_SET_NO = 999
REV_AT_EPOCH   = 325
BSTAR          = -.14782926E-1
MEAN_MOTION_DOT = -.1839438E-1
MEAN_MOTION_DDOT = 0

CCSDS_OMM_VERS = 2.0
CREATION_DATE  = 
ORIGINATOR     = 

OBJECT_NAME    = STARLINK-35836
OBJECT_ID      = 2025-268Q
CENTER_NAME    = EARTH
REF_FRAME      = TEME
TIME_SYSTEM    = UTC
MEAN_ELEMENT_THEORY = SGP/SGP4

EPOCH          = 2025-12-03T22:00:03.000096
MEAN_MOTION    = 15.73310468
ECCENTRICITY   = .00014762
INCLINATION    = 42.9991
RA_OF_ASC_NODE = 173.2711
ARG_OF_PERICENTER = 273.9342
MEAN_ANOMALY   = 1.6894

EPHEMERIS_TYPE = 0
CLASSIFICATION_TYPE = U
NORAD_CAT_ID   = 66571
ELEMENT_SET_NO = 999
REV_AT_EPOCH   = 325
BSTAR          = -.14823399E-1
MEAN_MOTION_DOT = -.1844078E-1
MEAN_MOTION_DDOT = 0

CCSDS_OMM_VERS = 2.0
CREATION_DATE  = 
ORIGINATOR     = 

OBJECT_NAME    = STARLINK-35870
OBJECT_ID      = 2025-268R
CENTER_NAME    = EARTH
REF_FRAME      = TEME
TIME_SYSTEM    = UTC
MEAN_ELEMENT_THEORY = SGP/SGP4

EPOCH          = 2025-12-03T22:00:03.000096
MEAN_MOTION    = 15.73314622
ECCENTRICITY   = .00016702
INCLINATION    = 42.9991
RA_OF_ASC_NODE = 173.2674
ARG_OF_PERICENTER = 266.3348
MEAN_ANOMALY   = 11.2013

EPHEMERIS_TYPE = 0
CLASSIFICATION_TYPE = U
NORAD_CAT_ID   = 66572
ELEMENT_SET_NO = 999
REV_AT_EPOCH   = 325
BSTAR          = -.14838457E-1
MEAN_MOTION_DOT = -.1846163E-1
MEAN_MOTION_DDOT = 0

CCSDS_OMM_VERS = 2.0
CREATION_DATE  = 
ORIGINATOR     = 

OBJECT_NAME    = STARLINK-35650
OBJECT_ID      = 2025-268S
CENTER_NAME    = EARTH
REF_FRAME      = TEME
TIME_SYSTEM    = UTC
MEAN_ELEMENT_THEORY = SGP/SGP4

EPOCH          = 2025-12-03T22:00:03.000096
MEAN_MOTION    = 15.73308348
ECCENTRICITY   = .00018734
INCLINATION    = 42.9990
RA_OF_ASC_NODE = 173.2615
ARG_OF_PERICENTER = 269.0657
MEAN_ANOMALY   = 10.3869

EPHEMERIS_TYPE = 0
CLASSIFICATION_TYPE = U
NORAD_CAT_ID   = 66573
ELEMENT_SET_NO = 999
REV_AT_EPOCH   = 325
BSTAR          = -.14749009E-1
MEAN_MOTION_DOT = -.183622E-1
MEAN_MOTION_DDOT = 0

CCSDS_OMM_VERS = 2.0
CREATION_DATE  = 
ORIGINATOR     = 

OBJECT_NAME    = STARLINK-35812
OBJECT_ID      = 2025-268T
CENTER_NAME    = EARTH
REF_FRAME      = TEME
TIME_SYSTEM    = UTC
MEAN_ELEMENT_THEORY = SGP/SGP4

EPOCH          = 2025-12-03T22:00:03.000096
MEAN_MOTION    = 15.73314890
ECCENTRICITY   = .00015127
INCLINATION    = 42.9991
RA_OF_ASC_NODE = 173.2561
ARG_OF_PERICENTER = 267.9771
MEAN_ANOMALY   = 13.3965

EPHEMERIS_TYPE = 0
CLASSIFICATION_TYPE = U
NORAD_CAT_ID   = 66574
ELEMENT_SET_NO = 999
REV_AT_EPOCH   = 325
BSTAR          = -.14872747E-1
MEAN_MOTION_DOT = -.1849753E-1
MEAN_MOTION_DDOT = 0

